[{"OBJECT_NAME":"GPS BIIR-2  (PRN 13)","OBJECT_ID":"1997-035A","EPOCH":"2026-04-25T08:27:02.055168","MEAN_MOTION":2.00563818,"ECCENTRICITY":0.009988,"INCLINATION":55.967,"RA_OF_ASC_NODE":100.6395,"ARG_OF_PERICENTER":56.197,"MEAN_ANOMALY":304.7489,"EPHEMERIS_TYPE":0,"CLASSIFICATION_TYPE":"U","NORAD_CAT_ID":24876,"ELEMENT_SET_NO":999,"REV_AT_EPOCH":21089,"BSTAR":0,"MEAN_MOTION_DOT":5.5e-7,"MEAN_MOTION_DDOT":0},{"OBJECT_NAME":"GPS BIIR-5  (PRN 22)","OBJECT_ID":"2000-040A","EPOCH":"2026-04-24T10:54:36.449856","MEAN_MOTION":2.00569428,"ECCENTRICITY":0.01219032,"INCLINATION":54.8617,"RA_OF_ASC_NODE":217.2959,"ARG_OF_PERICENTER":302.4845,"MEAN_ANOMALY":64.7202,"EPHEMERIS_TYPE":0,"CLASSIFICATION_TYPE":"U","NORAD_CAT_ID":26407,"ELEMENT_SET_NO":999,"REV_AT_EPOCH":18887,"BSTAR":0,"MEAN_MOTION_DOT":-3.7e-7,"MEAN_MOTION_DDOT":0},{"OBJECT_NAME":"GPS BIIR-8  (PRN 16)","OBJECT_ID":"2003-005A","EPOCH":"2026-04-25T06:28:28.786368","MEAN_MOTION":2.00563368,"ECCENTRICITY":0.01482,"INCLINATION":54.8929,"RA_OF_ASC_NODE":217.0709,"ARG_OF_PERICENTER":52.9584,"MEAN_ANOMALY":317.9588,"EPHEMERIS_TYPE":0,"CLASSIFICATION_TYPE":"U","NORAD_CAT_ID":27663,"ELEMENT_SET_NO":999,"REV_AT_EPOCH":17025,"BSTAR":0,"MEAN_MOTION_DOT":-4.5e-7,"MEAN_MOTION_DDOT":0},{"OBJECT_NAME":"GPS BIIR-11 (PRN 19)","OBJECT_ID":"2004-009A","EPOCH":"2026-04-25T13:01:03.283104","MEAN_MOTION":2.00556347,"ECCENTRICITY":0.0113634,"INCLINATION":54.8745,"RA_OF_ASC_NODE":277.8127,"ARG_OF_PERICENTER":170.7965,"MEAN_ANOMALY":191.3848,"EPHEMERIS_TYPE":0,"CLASSIFICATION_TYPE":"U","NORAD_CAT_ID":28190,"ELEMENT_SET_NO":999,"REV_AT_EPOCH":16189,"BSTAR":0,"MEAN_MOTION_DOT":-3.7e-7,"MEAN_MOTION_DDOT":0},{"OBJECT_NAME":"GPS BIIR-13 (PRN 02)","OBJECT_ID":"2004-045A","EPOCH":"2026-04-24T18:04:08.259168","MEAN_MOTION":2.0055335,"ECCENTRICITY":0.01700868,"INCLINATION":55.1665,"RA_OF_ASC_NODE":327.0483,"ARG_OF_PERICENTER":314.9297,"MEAN_ANOMALY":262.4767,"EPHEMERIS_TYPE":0,"CLASSIFICATION_TYPE":"U","NORAD_CAT_ID":28474,"ELEMENT_SET_NO":999,"REV_AT_EPOCH":15735,"BSTAR":0,"MEAN_MOTION_DOT":-7.0e-7,"MEAN_MOTION_DDOT":0},{"OBJECT_NAME":"GPS BIIRM-1 (PRN 17)","OBJECT_ID":"2005-038A","EPOCH":"2026-04-25T18:24:38.603808","MEAN_MOTION":2.00569269,"ECCENTRICITY":0.0127786,"INCLINATION":54.9222,"RA_OF_ASC_NODE":275.2914,"ARG_OF_PERICENTER":295.8447,"MEAN_ANOMALY":254.9889,"EPHEMERIS_TYPE":0,"CLASSIFICATION_TYPE":"U","NORAD_CAT_ID":28874,"ELEMENT_SET_NO":999,"REV_AT_EPOCH":15078,"BSTAR":0,"MEAN_MOTION_DOT":-4.0e-7,"MEAN_MOTION_DDOT":0},{"OBJECT_NAME":"INMARSAT 4-F2 (SOUTHPAN/PRN 122)","OBJECT_ID":"2005-044A","EPOCH":"2026-04-25T18:43:38.676000","MEAN_MOTION":1.00272238,"ECCENTRICITY":0.0002704,"INCLINATION":5.0292,"RA_OF_ASC_NODE":43.758,"ARG_OF_PERICENTER":347.7503,"MEAN_ANOMALY":246.6499,"EPHEMERIS_TYPE":0,"CLASSIFICATION_TYPE":"U","NORAD_CAT_ID":28899,"ELEMENT_SET_NO":999,"REV_AT_EPOCH":7499,"BSTAR":0,"MEAN_MOTION_DOT":-2.71e-6,"MEAN_MOTION_DDOT":0},{"OBJECT_NAME":"GPS BIIRM-2 (PRN 31)","OBJECT_ID":"2006-042A","EPOCH":"2026-04-25T03:54:29.012256","MEAN_MOTION":2.00572767,"ECCENTRICITY":0.01061457,"INCLINATION":54.7024,"RA_OF_ASC_NODE":153.4444,"ARG_OF_PERICENTER":53.4415,"MEAN_ANOMALY":318.7117,"EPHEMERIS_TYPE":0,"CLASSIFICATION_TYPE":"U","NORAD_CAT_ID":29486,"ELEMENT_SET_NO":999,"REV_AT_EPOCH":14333,"BSTAR":0,"MEAN_MOTION_DOT":4.3e-7,"MEAN_MOTION_DDOT":0},{"OBJECT_NAME":"GPS BIIRM-3 (PRN 12)","OBJECT_ID":"2006-052A","EPOCH":"2026-04-24T13:40:50.622240","MEAN_MOTION":2.00555028,"ECCENTRICITY":0.00864806,"INCLINATION":54.9441,"RA_OF_ASC_NODE":216.131,"ARG_OF_PERICENTER":90.248,"MEAN_ANOMALY":270.7556,"EPHEMERIS_TYPE":0,"CLASSIFICATION_TYPE":"U","NORAD_CAT_ID":29601,"ELEMENT_SET_NO":999,"REV_AT_EPOCH":14233,"BSTAR":0,"MEAN_MOTION_DOT":-3.8e-7,"MEAN_MOTION_DDOT":0},{"OBJECT_NAME":"GPS BIIRM-4 (PRN 15)","OBJECT_ID":"2007-047A","EPOCH":"2026-04-25T20:56:04.673184","MEAN_MOTION":2.00557893,"ECCENTRICITY":0.0164753,"INCLINATION":54.0579,"RA_OF_ASC_NODE":82.2205,"ARG_OF_PERICENTER":86.4856,"MEAN_ANOMALY":275.3782,"EPHEMERIS_TYPE":0,"CLASSIFICATION_TYPE":"U","NORAD_CAT_ID":32260,"ELEMENT_SET_NO":999,"REV_AT_EPOCH":13576,"BSTAR":0,"MEAN_MOTION_DOT":1.0e-7,"MEAN_MOTION_DDOT":0},{"OBJECT_NAME":"COSMOS 2433 (720)","OBJECT_ID":"2007-052A","EPOCH":"2026-04-24T21:20:57.948576","MEAN_MOTION":2.13103913,"ECCENTRICITY":8.775e-5,"INCLINATION":65.6073,"RA_OF_ASC_NODE":317.7278,"ARG_OF_PERICENTER":210.0462,"MEAN_ANOMALY":149.9789,"EPHEMERIS_TYPE":0,"CLASSIFICATION_TYPE":"U","NORAD_CAT_ID":32275,"ELEMENT_SET_NO":999,"REV_AT_EPOCH":14392,"BSTAR":0,"MEAN_MOTION_DOT":-2.5e-7,"MEAN_MOTION_DDOT":0},{"OBJECT_NAME":"COSMOS 2432 (719)","OBJECT_ID":"2007-052B","EPOCH":"2026-04-25T04:51:08.166240","MEAN_MOTION":2.13103026,"ECCENTRICITY":0.00090532,"INCLINATION":65.6222,"RA_OF_ASC_NODE":317.8438,"ARG_OF_PERICENTER":337.4405,"MEAN_ANOMALY":206.4819,"EPHEMERIS_TYPE":0,"CLASSIFICATION_TYPE":"U","NORAD_CAT_ID":32276,"ELEMENT_SET_NO":999,"REV_AT_EPOCH":14395,"BSTAR":0,"MEAN_MOTION_DOT":-2.6e-7,"MEAN_MOTION_DDOT":0},{"OBJECT_NAME":"GPS BIIRM-5 (PRN 29)","OBJECT_ID":"2007-062A","EPOCH":"2026-04-25T10:36:09.677088","MEAN_MOTION":2.00556762,"ECCENTRICITY":0.0034544,"INCLINATION":55.0752,"RA_OF_ASC_NODE":276.2714,"ARG_OF_PERICENTER":162.3254,"MEAN_ANOMALY":13.9135,"EPHEMERIS_TYPE":0,"CLASSIFICATION_TYPE":"U","NORAD_CAT_ID":32384,"ELEMENT_SET_NO":999,"REV_AT_EPOCH":13445,"BSTAR":0,"MEAN_MOTION_DOT":-3.6e-7,"MEAN_MOTION_DDOT":0},{"OBJECT_NAME":"COSMOS 2434 (721)","OBJECT_ID":"2007-065A","EPOCH":"2026-04-23T06:16:19.560000","MEAN_MOTION":2.13101316,"ECCENTRICITY":0.0001761,"INCLINATION":64.3156,"RA_OF_ASC_NODE":193.7675,"ARG_OF_PERICENTER":53.0873,"MEAN_ANOMALY":27.9132,"EPHEMERIS_TYPE":0,"CLASSIFICATION_TYPE":"U","NORAD_CAT_ID":32393,"ELEMENT_SET_NO":999,"REV_AT_EPOCH":14260,"BSTAR":0,"MEAN_MOTION_DOT":-6.0e-8,"MEAN_MOTION_DDOT":0},{"OBJECT_NAME":"COSMOS 2436 (723)","OBJECT_ID":"2007-065C","EPOCH":"2026-04-24T20:40:28.937856","MEAN_MOTION":2.13100207,"ECCENTRICITY":0.00171847,"INCLINATION":64.3242,"RA_OF_ASC_NODE":193.7851,"ARG_OF_PERICENTER":359.7473,"MEAN_ANOMALY":1.3358,"EPHEMERIS_TYPE":0,"CLASSIFICATION_TYPE":"U","NORAD_CAT_ID":32395,"ELEMENT_SET_NO":999,"REV_AT_EPOCH":14259,"BSTAR":0,"MEAN_MOTION_DOT":-1.7e-7,"MEAN_MOTION_DDOT":0},{"OBJECT_NAME":"GPS BIIRM-6 (PRN 07)","OBJECT_ID":"2008-012A","EPOCH":"2026-04-25T06:56:28.691808","MEAN_MOTION":2.00570935,"ECCENTRICITY":0.020967,"INCLINATION":54.4881,"RA_OF_ASC_NODE":152.0383,"ARG_OF_PERICENTER":247.0859,"MEAN_ANOMALY":110.7495,"EPHEMERIS_TYPE":0,"CLASSIFICATION_TYPE":"U","NORAD_CAT_ID":32711,"ELEMENT_SET_NO":999,"REV_AT_EPOCH":13269,"BSTAR":0,"MEAN_MOTION_DOT":4.6e-7,"MEAN_MOTION_DDOT":0},{"OBJECT_NAME":"GPS BIIRM-8 (PRN 05)","OBJECT_ID":"2009-043A","EPOCH":"2026-04-25T18:47:40.518240","MEAN_MOTION":2.00557111,"ECCENTRICITY":0.0052955,"INCLINATION":56.1794,"RA_OF_ASC_NODE":29.5103,"ARG_OF_PERICENTER":81.3411,"MEAN_ANOMALY":288.625,"EPHEMERIS_TYPE":0,"CLASSIFICATION_TYPE":"U","NORAD_CAT_ID":35752,"ELEMENT_SET_NO":999,"REV_AT_EPOCH":12231,"BSTAR":0,"MEAN_MOTION_DOT":-1.01e-6,"MEAN_MOTION_DDOT":0}]
